$$SOE
2459580.500000000, A.D. 2022-Jan-01 00:00:00.0000, 3.331799710090915E+08, -1.650527011215681E+08, -2.343527224597246E+07,
2459587.500000000, A.D. 2022-Jan-08 00:00:00.0000, 3.384471162381354E+08, -1.552558176041703E+08, -2.449331681846335E+07,
2459594.500000000, A.D. 2022-Jan-15 00:00:00.0000, 3.433983487779345E+08, -1.453139799564087E+08, -2.552847179636303E+07,
2459601.500000000, A.D. 2022-Jan-22 00:00:00.0000, 3.480305616323186E+08, -1.352371200771240E+08, -2.653988204067394E+07,
2459608.500000000, A.D. 2022-Jan-29 00:00:00.0000, 3.523409364288696E+08, -1.250351851463176E+08, -2.752671958181507E+07,
2459615.500000000, A.D. 2022-Feb-05 00:00:00.0000, 3.563269373752615E+08, -1.147181316266058E+08, -2.848818347355986E+07,
2459622.500000000, A.D. 2022-Feb-12 00:00:00.0000, 3.599863073824040E+08, -1.042959206506765E+08, -2.942349991329342E+07,
2459629.500000000, A.D. 2022-Feb-19 00:00:00.0000, 3.633170650445743E+08, -9.377851241128148E+07, -3.033192231550256E+07,
2459636.500000000, A.D. 2022-Feb-26 00:00:00.0000, 3.663175011802287E+08, -8.317586026378159E+07, -3.121273127944302E+07,
2459643.500000000, A.D. 2022-Mar-05 00:00:00.0000, 3.689861751059423E+08, -7.249790514527273E+07, -3.206523451816125E+07,
2459650.500000000, A.D. 2022-Mar-12 00:00:00.0000, 3.713219108768983E+08, -6.175457036270050E+07, -3.288876677668687E+07,
2459657.500000000, A.D. 2022-Mar-19 00:00:00.0000, 3.733237935755472E+08, -5.095575670826311E+07, -3.368268974566422E+07,
2459664.500000000, A.D. 2022-Mar-26 00:00:00.0000, 3.749911656806461E+08, -4.011133789430515E+07, -3.444639197495987E+07,
2459671.500000000, A.D. 2022-Apr-02 00:00:00.0000, 3.763236235933719E+08, -2.923115635024929E+07, -3.517928880001041E+07,
2459678.500000000, A.D. 2022-Apr-09 00:00:00.0000, 3.773210145989523E+08, -1.832501936401144E+07, -3.588082230729485E+07,
2459685.500000000, A.D. 2022-Apr-16 00:00:00.0000, 3.779834346239830E+08, -7.402694899305232E+06, -3.655046131955852E+07,
2459692.500000000, A.D. 2022-Apr-23 00:00:00.0000, 3.783112255263234E+08, 3.526094012844248E+06, -3.718770119697007E+07,
2459699.500000000, A.D. 2022-Apr-30 00:00:00.0000, 3.783049700581726E+08, 1.445167407704433E+07, -3.779206346810946E+07,
2459706.500000000, A.D. 2022-May-07 00:00:00.0000, 3.779654875698349E+08, 2.536442376798876E+07, -3.836309573478428E+07,
2459713.500000000, A.D. 2022-May-14 00:00:00.0000, 3.772938318434661E+08, 3.625477564854755E+07, -3.890037173080457E+07,
2459720.500000000, A.D. 2022-May-21 00:00:00.0000, 3.762912890282599E+08, 4.711321974561977E+07, -3.940349128743076E+07,
2459727.500000000, A.D. 2022-May-28 00:00:00.0000, 3.749593752021954E+08, 5.793030703931059E+07, -3.987208024118994E+07,
2459734.500000000, A.D. 2022-Jun-04 00:00:00.0000, 3.732998338408619E+08, 6.869665276611310E+07, -4.030579033633181E+07,
2459741.500000000, A.D. 2022-Jun-11 00:00:00.0000, 3.713146333406698E+08, 7.940293955094601E+07, -4.070429913622852E+07,
2459748.500000000, A.D. 2022-Jun-18 00:00:00.0000, 3.690059646364498E+08, 9.003992039280687E+07, -4.106730994717077E+07,
2459755.500000000, A.D. 2022-Jun-25 00:00:00.0000, 3.663762389418894E+08, 1.005984214813471E+08, -4.139455176051150E+07,
2459762.500000000, A.D. 2022-Jul-02 00:00:00.0000, 3.634280857432553E+08, 1.110693447891966E+08, -4.168577923084655E+07,
2459769.500000000, A.D. 2022-Jul-09 00:00:00.0000, 3.601643514309132E+08, 1.214436706285671E+08, -4.194077271124683E+07,
2459776.500000000, A.D. 2022-Jul-16 00:00:00.0000, 3.565880985056807E+08, 1.317124612690150E+08, -4.215933825132579E+07,
2459783.500000000, A.D. 2022-Jul-23 00:00:00.0000, 3.527026031584095E+08, 1.418668657136773E+08, -4.234130734998583E+07,
2459790.500000000, A.D. 2022-Jul-30 00:00:00.0000, 3.485113513146960E+08, 1.518981222975802E+08, -4.248653674653561E+07,
2459797.500000000, A.D. 2022-Aug-06 00:00:00.0000, 3.440180367476661E+08, 1.617975597645917E+08, -4.259490852902980E+07,
2459804.500000000, A.D. 2022-Aug-13 00:00:00.0000, 3.392265604314337E+08, 1.715565995853492E+08, -4.266633025930287E+07,
2459811.500000000, A.D. 2022-Aug-20 00:00:00.0000, 3.341410295609857E+08, 1.811667590228176E+08, -4.270073501164722E+07,
2459818.500000000, A.D. 2022-Aug-27 00:00:00.0000, 3.287657563017418E+08, 1.906196542292683E+08, -4.269808139056821E+07,
2459825.500000000, A.D. 2022-Sep-03 00:00:00.0000, 3.231052565111017E+08, 1.999070032745675E+08, -4.265835355917370E+07,
2459832.500000000, A.D. 2022-Sep-10 00:00:00.0000, 3.171642485159896E+08, 2.090206291402455E+08, -4.258156128430138E+07,
2459839.500000000, A.D. 2022-Sep-17 00:00:00.0000, 3.109476519694459E+08, 2.179524626882472E+08, -4.246774000108483E+07,
2459846.500000000, A.D. 2022-Sep-24 00:00:00.0000, 3.044605868402654E+08, 2.266945455642904E+08, -4.231695090662675E+07,
2459853.500000000, A.D. 2022-Oct-01 00:00:00.0000, 2.977083727697076E+08, 2.352390330244918E+08, -4.212928110683398E+07,
2459860.500000000, A.D. 2022-Oct-08 00:00:00.0000, 2.906965291971596E+08, 2.435781972167636E+08, -4.190484381156823E+07,
2459867.500000000, A.D. 2022-Oct-15 00:00:00.0000, 2.834307753138378E+08, 2.517044321220974E+08, -4.164377839429951E+07,
2459874.500000000, A.D. 2022-Oct-22 00:00:00.0000, 2.759170276504061E+08, 2.596102584814826E+08, -4.134625025264239E+07,
2459881.500000000, A.D. 2022-Oct-29 00:00:00.0000, 2.681613977914477E+08, 2.672883261285877E+08, -4.101245091146812E+07,
2459888.500000000, A.D. 2022-Nov-05 00:00:00.0000, 2.601701923105903E+08, 2.747314164751284E+08, -4.064259833748177E+07,
2459895.500000000, A.D. 2022-Nov-12 00:00:00.0000, 2.519499129486487E+08, 2.819324464199758E+08, -4.023693718011262E+07,
2459902.500000000, A.D. 2022-Nov-19 00:00:00.0000, 2.435072563017172E+08, 2.888844727344519E+08, -3.979573894929656E+07,
2459909.500000000, A.D. 2022-Nov-26 00:00:00.0000, 2.348491132679606E+08, 2.955806965341728E+08, -3.931930218562394E+07,
2459916.500000000, A.D. 2022-Dec-03 00:00:00.0000, 2.259825684055538E+08, 3.020144678343894E+08, -3.880795263830829E+07,
2459923.500000000, A.D. 2022-Dec-10 00:00:00.0000, 2.169148992341223E+08, 3.081792902165359E+08, -3.826204345324203E+07,
2459930.500000000, A.D. 2022-Dec-17 00:00:00.0000, 2.076535754918490E+08, 3.140688255898199E+08, -3.768195537521651E+07,
2459937.500000000, A.D. 2022-Dec-24 00:00:00.0000, 1.982062584452686E+08, 3.196768989900595E+08, -3.706809697937135E+07,
2459944.500000000, A.D. 2022-Dec-31 00:00:00.0000, 1.885808005969586E+08, 3.249975035307202E+08, -3.642090495537671E+07,
2459951.500000000, A.D. 2023-Jan-07 00:00:00.0000, 1.787852459020041E+08, 3.300248064743878E+08, -3.574084437640132E+07,
2459958.500000000, A.D. 2023-Jan-14 00:00:00.0000, 1.688278285116495E+08, 3.347531569211693E+08, -3.502840873012865E+07,
2459965.500000000, A.D. 2023-Jan-21 00:00:00.0000, 1.587169693775150E+08, 3.391770919419962E+08, -3.428411990888821E+07,
2459972.500000000, A.D. 2023-Jan-28 00:00:00.0000, 1.484612743669835E+08, 3.432913409707181E+08, -3.350852851029496E+07,
2459979.500000000, A.D. 2023-Feb-04 00:00:00.0000, 1.380695336669634E+08, 3.470908314859356E+08, -3.270221418097861E+07,
2459986.500000000, A.D. 2023-Feb-11 00:00:00.0000, 1.275507206610443E+08, 3.505706957879664E+08, -3.186578585224101E+07,
2459993.500000000, A.D. 2023-Feb-18 00:00:00.0000, 1.169139901958430E+08, 3.537262780488468E+08, -3.099988192690147E+07,
2460000.500000000, A.D. 2023-Feb-25 00:00:00.0000, 1.061686764792985E+08, 3.565531414750033E+08, -3.010517045272478E+07,
2460007.500000000, A.D. 2023-Mar-04 00:00:00.0000, 9.532429069369696E+07, 3.590470756013166E+08, -2.918234928828555E+07,
2460014.500000000, A.D. 2023-Mar-11 00:00:00.0000, 8.439051833286759E+07, 3.612041037140076E+08, -2.823214626150763E+07,
2460021.500000000, A.D. 2023-Mar-18 00:00:00.0000, 7.337721629039070E+07, 3.630204903455132E+08, -2.725531932619864E+07,
2460028.500000000, A.D. 2023-Mar-25 00:00:00.0000, 6.229440987862234E+07, 3.644927487831966E+08, -2.625265673526832E+07,
2460035.500000000, A.D. 2023-Apr-01 00:00:00.0000, 5.115229017528225E+07, 3.656176489750538E+08, -2.522497723349632E+07,
2460042.500000000, A.D. 2023-Apr-08 00:00:00.0000, 3.996121105415258E+07, 3.663922270518439E+08, -2.417313011043635E+07,
2460049.500000000, A.D. 2023-Apr-15 00:00:00.0000, 2.873168353838233E+07, 3.668137953515863E+08, -2.309799498689759E+07,
2460056.500000000, A.D. 2023-Apr-22 00:00:00.0000, 1.747436925779015E+07, 3.668799498830171E+08, -2.200048174678113E+07,
2460063.500000000, A.D. 2023-Apr-29 00:00:00.0000, 6.200075719756456E+06, 3.665885774770079E+08, -2.088153067913865E+07,
2460070.500000000, A.D. 2023-May-06 00:00:00.0000, -5.080248385462483E+06, 3.659378643958170E+08, -1.974211252143449E+07,
2460077.500000000, A.D. 2023-May-13 00:00:00.0000, -1.635551884451644E+07, 3.649263054852225E+08, -1.858322838366225E+07,
2460084.500000000, A.D. 2023-May-20 00:00:00.0000, -2.761452233758702E+07, 3.635527133556356E+08, -1.740590961093867E+07,
2460091.500000000, A.D. 2023-May-27 00:00:00.0000, -3.884592344446219E+07, 3.618162275391937E+08, -1.621121760094516E+07,
2460098.500000000, A.D. 2023-Jun-03 00:00:00.0000, -5.003827220809482E+07, 3.597163236234469E+08, -1.500024357566446E+07,
2460105.500000000, A.D. 2023-Jun-10 00:00:00.0000, -6.118001225681884E+07, 3.572528223201993E+08, -1.377410830699171E+07,
2460112.500000000, A.D. 2023-Jun-17 00:00:00.0000, -7.225948942033683E+07, 3.544258983791221E+08, -1.253396180550405E+07,
2460119.500000000, A.D. 2023-Jun-24 00:00:00.0000, -8.326496054293737E+07, 3.512360893687252E+08, -1.128098299330546E+07,
2460126.500000000, A.D. 2023-Jul-01 00:00:00.0000, -9.418460226397943E+07, 3.476843051180801E+08, -1.001637931265225E+07,
2460133.500000000, A.D. 2023-Jul-08 00:00:00.0000, -1.050065214606951E+08, 3.437718386069786E+08, -8.741386046232298E+06,
2460140.500000000, A.D. 2023-Jul-15 00:00:00.0000, -1.157187686443285E+08, 3.395003754335222E+08, -7.457265459383965E+06,
2460147.500000000, A.D. 2023-Jul-22 00:00:00.0000, -1.263093508046376E+08, 3.348720007724198E+08, -6.165306166565731E+06,
$$EOE